NORAD_CAT_ID,OBJECT_NAME,OBJECT_TYPE,EPOCH,MEAN_MOTION,ECCENTRICITY,INCLINATION,RA_OF_ASC_NODE,ARG_OF_PERICENTER,MEAN_ANOMALY,BSTAR,MEAN_MOTION_DOT,MEAN_MOTION_DDOT,TLE_LINE0,TLE_LINE1,TLE_LINE2,SEMIMAJOR_AXIS,PERIOD,APOGEE,PERIGEE,DECAYED
51143.0,STARLINK-3184,PAYLOAD,2024-01-28 14:03:06,15.08841627,0.0001491,53.2174,170.7458,76.9099,283.206,-2.9127e-05,-7.52e-06,0.0,0 STARLINK-3184,1 51143U 22005AR  24028.58549668 -.00000752  00000-0 -29127-4 0  9991,2 51143  53.2174 170.7458 0001491  76.9099 283.2060 15.08841627112181,6917.875,95.437,540.772,538.709,0.0
51143.0,STARLINK-3184,PAYLOAD,2024-01-28 15:38:30,15.08842144,0.0001483,53.2171,170.4485,74.1684,285.9471,-2.434e-05,-6.75e-06,0.0,0 STARLINK-3184,1 51143U 22005AR  24028.65173624 -.00000675  00000-0 -24340-4 0  9990,2 51143  53.2171 170.4485 0001483  74.1684 285.9471 15.08842144112197,6917.874,95.437,540.765,538.713,0.0
51143.0,STARLINK-3184,PAYLOAD,2024-01-29 12:18:29,15.08847247,0.0001435,53.217,166.5822,80.5345,279.5809,8.9612e-05,1.139e-05,0.0,0 STARLINK-3184,1 51143U 22005AR  24029.51284693  .00001139  00000-0  89612-4 0  9992,2 51143  53.2170 166.5822 0001435  80.5345 279.5809 15.08847247112327,6917.858,95.437,540.716,538.731,0.0
51143.0,STARLINK-3184,PAYLOAD,2024-01-30 12:09:17,15.08838524,0.0001209,53.2167,162.1207,94.9756,265.1374,8.08e-06,-1.59e-06,0.0,0 STARLINK-3184,1 51143U 22005AR  24030.50645351 -.00000159  00000-0  80800-5 0  9998,2 51143  53.2167 162.1207 0001209  94.9756 265.1374 15.08838524113581,6917.885,95.438,540.586,538.914,0.0
51143.0,STARLINK-3184,PAYLOAD,2024-01-30 13:44:40,15.08838248,0.0001185,53.2163,161.8231,92.238,267.8748,6.2216e-06,-1.89e-06,0.0,0 STARLINK-3184,1 51143U 22005AR  24030.57269377 -.00000189  00000-0  62216-5 0  9999,2 51143  53.2163 161.8231 0001185  92.2380 267.8748 15.08838248112482,6917.886,95.438,540.571,538.931,0.0
51143.0,STARLINK-3184,PAYLOAD,2024-01-30 18:30:50,15.08837188,0.0001251,53.2168,160.9316,94.4394,265.6741,-1.0709e-06,-3.05e-06,0.0,0 STARLINK-3184,1 51143U 22005AR  24030.77141475 -.00000305  00000-0 -10709-5 0  9990,2 51143  53.2168 160.9316 0001251  94.4394 265.6741 15.08837188112519,6917.889,95.438,540.619,538.889,0.0
51143.0,STARLINK-3184,PAYLOAD,2024-01-31 12:00:05,15.0883384,0.0001281,53.2163,157.6615,100.4149,259.6987,-1.9529e-05,-5.99e-06,0.0,0 STARLINK-3184,1 51143U 22005AR  24031.50005828 -.00000599  00000-0 -19529-4 0  9996,2 51143  53.2163 157.6615 0001281 100.4149 259.6987 15.08833840112626,6917.899,95.438,540.65,538.878,0.0
51143.0,STARLINK-3184,PAYLOAD,2024-02-01 11:50:51,15.08834948,0.0001396,53.2171,153.1992,105.1187,254.996,7.3374e-05,8.8e-06,0.0,0 STARLINK-3184,1 51143U 22005AR  24032.49365622  .00000880  00000-0  73374-4 0  9995,2 51143  53.2171 153.1992 0001396 105.1187 254.9960 15.08834948112770,6917.896,95.438,540.727,538.795,0.0
51143.0,STARLINK-3184,PAYLOAD,2024-02-02 14:52:25,15.08841493,0.0001309,53.2166,148.1444,73.6733,286.4403,6.4771e-05,7.43e-06,0.0,0 STARLINK-3184,1 51143U 22005AR  24033.61973632  .00000743  00000-0  64771-4 0  9995,2 51143  53.2166 148.1444 0001309  73.6733 286.4403 15.08841493112944,6917.876,95.437,540.646,538.835,0.0
51143.0,STARLINK-3184,PAYLOAD,2024-02-03 11:32:26,15.08835922,0.0001406,53.2173,144.28,75.8123,284.3026,8.7931e-06,-1.48e-06,0.0,0 STARLINK-3184,1 51143U 22005AR  24034.48086299 -.00000148  00000-0  87931-5 0  9999,2 51143  53.2173 144.2800 0001406  75.8123 284.3026 15.08835922114186,6917.893,95.438,540.731,538.785,0.0
51143.0,STARLINK-3184,PAYLOAD,2024-02-03 13:07:49,15.08837233,0.0001496,53.2169,143.9835,78.2363,281.8796,1.965e-05,2.5e-07,0.0,0 STARLINK-3184,1 51143U 22005AR  24034.54710206  .00000025  00000-0  19650-4 0  9993,2 51143  53.2169 143.9835 0001496  78.2363 281.8796 15.08837233113088,6917.889,95.438,540.789,538.719,0.0
51143.0,STARLINK-3184,PAYLOAD,2024-02-03 16:18:35,15.08843219,0.000158,53.2181,143.3829,75.4018,284.7149,6.4462e-05,7.38e-06,0.0,0 STARLINK-3184,1 51143U 22005AR  24034.67957661  .00000738  00000-0  64462-4 0  9997,2 51143  53.2181 143.3829 0001580  75.4018 284.7149 15.08843219114210,6917.871,95.437,540.829,538.643,0.0
51143.0,STARLINK-3184,PAYLOAD,2024-02-04 11:23:13,15.08837451,0.0001418,53.2173,139.8202,87.1233,272.9922,-1.5917e-05,-5.41e-06,0.0,0 STARLINK-3184,1 51143U 22005AR  24035.47446345 -.00000541  00000-0 -15917-4 0  9993,2 51143  53.2173 139.8202 0001418  87.1233 272.9922 15.08837451114337,6917.888,95.438,540.734,538.772,0.0
51143.0,STARLINK-3184,PAYLOAD,2024-02-04 14:33:59,15.08841787,0.0001757,53.2174,139.2258,71.1392,288.979,3.1889e-05,2.19e-06,0.0,0 STARLINK-3184,1 51143U 22005AR  24035.60694049  .00000219  00000-0  31889-4 0  9990,2 51143  53.2174 139.2258 0001757  71.1392 288.9790 15.08841787113244,6917.875,95.437,540.955,538.524,0.0
51143.0,STARLINK-3184,PAYLOAD,2024-02-05 12:49:23,15.08844626,0.0001373,53.2161,135.0606,99.9278,260.1869,5.3286e-06,-2.03e-06,0.0,0 STARLINK-3184,1 51143U 22005AR  24036.53429715 -.00000203  00000-0  53286-5 0  9999,2 51143  53.2161 135.0606 0001373  99.9278 260.1869 15.08844626114498,6917.866,95.437,540.681,538.781,0.0
51143.0,STARLINK-3184,PAYLOAD,2024-02-06 12:40:10,15.08844611,0.0001681,53.2175,130.5993,99.2193,260.8989,-4.4326e-06,-3.59e-06,0.0,0 STARLINK-3184,1 51143U 22005AR  24037.52789758 -.00000359  00000-0 -44326-5 0  9993,2 51143  53.2175 130.5993 0001681  99.2193 260.8989 15.08844611113531,6917.866,95.437,540.894,538.568,0.0
51143.0,STARLINK-3184,PAYLOAD,2024-02-07 12:30:57,15.08843544,0.0001528,53.2167,126.1395,95.5549,264.5618,2.1776e-05,5.9e-07,0.0,0 STARLINK-3184,1 51143U 22005AR  24038.52149673  .00000059  00000-0  21776-4 0  9998,2 51143  53.2167 126.1395 0001528  95.5549 264.5618 15.08843544114796,6917.87,95.437,540.792,538.678,0.0
51143.0,STARLINK-3184,PAYLOAD,2024-02-08 10:46:21,15.08841663,0.0001415,53.2171,121.9793,88.4648,271.6506,-2.1805e-06,-3.23e-06,0.0,0 STARLINK-3184,1 51143U 22005AR  24039.44886132 -.00000323  00000-0 -21805-5 0  9998,2 51143  53.2171 121.9793 0001415  88.4648 271.6506 15.08841663114933,6917.875,95.437,540.719,538.761,0.0
51143.0,STARLINK-3184,PAYLOAD,2024-02-08 12:21:44,15.08844024,0.0001597,53.2172,121.6804,96.689,263.4284,1.9716e-05,2.6e-07,0.0,0 STARLINK-3184,1 51143U 22005AR  24039.51509868  .00000026  00000-0  19716-4 0  9999,2 51143  53.2172 121.6804 0001597  96.6890 263.4284 15.08844024113839,6917.868,95.437,540.838,538.628,0.0
51143.0,STARLINK-3184,PAYLOAD,2024-02-09 12:12:31,15.08839242,0.0001506,53.2168,117.2171,90.5802,269.5363,8.2909e-06,-1.56e-06,0.0,0 STARLINK-3184,1 51143U 22005AR  24040.50870355 -.00000156  00000-0  82909-5 0  9992,2 51143  53.2168 117.2171 0001506  90.5802 269.5363 15.08839242113985,6917.883,95.438,540.79,538.706,0.0
51143.0,STARLINK-3184,PAYLOAD,2024-02-09 15:23:18,15.08840207,0.0001562,53.2166,116.6201,97.9766,262.1403,1.9183e-05,1.7e-07,0.0,0 STARLINK-3184,1 51143U 22005AR  24040.64118225  .00000017  00000-0  19183-4 0  9996,2 51143  53.2166 116.6201 0001562  97.9766 262.1403 15.08840207115116,6917.88,95.438,540.825,538.664,0.0
51143.0,STARLINK-3184,PAYLOAD,2024-02-10 04:06:24,15.08831427,0.000153,53.2167,114.2375,104.2138,255.9024,-6.195e-05,-1.274e-05,0.0,0 STARLINK-3184,1 51143U 22005AR  24041.17111457 -.00001274  00000-0 -61950-4 0  9992,2 51143  53.2167 114.2375 0001530 104.2138 255.9024 15.08831427115194,6917.907,95.438,540.83,538.713,0.0
51143.0,STARLINK-3184,PAYLOAD,2024-02-10 12:03:19,15.08838003,0.000178,53.2177,112.7598,74.5752,285.5436,1.5113e-05,-4.8e-07,0.0,0 STARLINK-3184,1 51143U 22005AR  24041.50230960 -.00000048  00000-0  15113-4 0  9997,2 51143  53.2177 112.7598 0001780  74.5752 285.5436 15.08838003115242,6917.886,95.438,540.983,538.52,0.0
51143.0,STARLINK-3184,PAYLOAD,2024-02-11 11:54:06,15.08844642,0.0001829,53.2182,108.2975,79.0741,281.0456,9.0286e-05,1.149e-05,0.0,0 STARLINK-3184,1 51143U 22005AR  24042.49590456  .00001149  00000-0  90286-4 0  9991,2 51143  53.2182 108.2975 0001829  79.0741 281.0456 15.08844642114281,6917.866,95.437,540.996,538.466,0.0
51143.0,STARLINK-3184,PAYLOAD,2024-02-12 10:09:29,15.08843304,0.0001833,53.2174,104.1363,81.0201,279.0998,9.8173e-05,1.275e-05,0.0,0 STARLINK-3184,1 51143U 22005AR  24043.42326388  .00001275  00000-0  98173-4 0  9999,2 51143  53.2174 104.1363 0001833  81.0201 279.0998 15.08843304114425,6917.87,95.437,541.003,538.467,0.0
51143.0,STARLINK-3184,PAYLOAD,2024-02-13 03:38:44,15.08837704,0.0001726,53.217,100.867,75.8412,284.2772,-4.8396e-06,-3.65e-06,0.0,0 STARLINK-3184,1 51143U 22005AR  24044.15190947 -.00000365  00000-0 -48396-5 0  9994,2 51143  53.2170 100.8670 0001726  75.8412 284.2772 15.08837704115641,6917.887,95.438,540.946,538.558,0.0
51143.0,STARLINK-3184,PAYLOAD,2024-02-13 10:00:17,15.08839478,0.000148,53.2159,99.674,96.177,263.9391,-9.0708e-05,-1.731e-05,0.0,0 STARLINK-3184,1 51143U 22005AR  24044.41687076 -.00001731  00000-0 -90708-4 0  9998,2 51143  53.2159  99.6740 0001480  96.1770 263.9391 15.08839478114573,6917.882,95.438,540.771,538.723,0.0
51143.0,STARLINK-3184,PAYLOAD,2024-02-13 21:07:59,15.08836098,0.0001495,53.2168,97.5902,104.2593,255.8566,-1.9122e-05,-5.92e-06,0.0,0 STARLINK-3184,1 51143U 22005AR  24044.88055064 -.00000592  00000-0 -19122-4 0  9990,2 51143  53.2168  97.5902 0001495 104.2593 255.8566 15.08836098114647,6917.892,95.438,540.792,538.723,0.0
51143.0,STARLINK-3184,PAYLOAD,2024-02-14 09:51:03,15.08847942,0.0001583,53.2171,95.2132,86.2651,273.8522,2.4907e-05,1.08e-06,0.0,0 STARLINK-3184,1 51143U 22005AR  24045.41046223  .00000108  00000-0  24907-4 0  9995,2 51143  53.2171  95.2132 0001583  86.2651 273.8522 15.08847942115837,6917.856,95.437,540.816,538.626,0.0
51143.0,STARLINK-3184,PAYLOAD,2024-02-14 13:01:50,15.08850131,0.0001638,53.2166,94.6186,83.5519,276.566,4.961e-05,5.02e-06,0.0,0 STARLINK-3184,1 51143U 22005AR  24045.54293988  .00000502  00000-0  49610-4 0  9997,2 51143  53.2166  94.6186 0001638  83.5519 276.5660 15.08850131114743,6917.849,95.437,540.848,538.581,0.0
